STARLINK-36706          
1 67657U 26022K   26048.91668981 -.00048848  00000+0 -32832-3 0  9995
2 67657  97.2844  81.9299 0001449  99.7884  23.1927 15.75201836  3687
STARLINK-36701          
1 67658U 26022L   26048.91668981 -.00049085  00000+0 -32972-3 0  9995
2 67658  97.2842  81.9338 0001364  90.0485  38.9187 15.75217297  3711
STARLINK-36642          
1 67659U 26022M   26048.91668981 -.00069407  00000+0 -46767-3 0  9993
2 67659  97.2841  81.9365 0001059  88.1392  46.8299 15.75219159  3718
STARLINK-36673          
1 67660U 26022N   26048.91668981 -.00033243  00000+0 -22270-3 0  9997
2 67660  97.2847  81.9390 0001382  99.4884  43.4816 15.75207136  3714
STARLINK-36674          
1 67661U 26022P   26048.91668981 -.00036704  00000+0 -24602-3 0  9994
2 67661  97.2847  81.9434 0001290  96.4824  54.4864 15.75212853  3710
STARLINK-36700          
1 67662U 26022Q   26048.91668981 -.00049605  00000+0 -33296-3 0  9998
2 67662  97.2847  81.9479 0001591 103.1876  59.7694 15.75235581  3719
STARLINK-36675          
1 67663U 26022R   26048.91668981 -.00031800  00000+0 -21295-3 0  9993
2 67663  97.2848  81.9447 0001366  83.7992  71.1679 15.75208223  3712
STARLINK-36404          
1 67664U 26022S   26048.91668981 -.00034692  00000+0 -23254-3 0  9993
2 67664  97.2851  81.9502 0000773  83.5429  89.4249 15.75203389  3682
STARLINK-36399          
1 67665U 26022T   26048.91668981 -.00023928  00000+0 -15986-3 0  9997
2 67665  97.2851  81.9526 0000998  94.4481  82.5182 15.75210725  3689
STARLINK-36365          
1 67666U 26022U   26048.91668981  .00093727  00000+0  62177-3 0  9994
2 67666  97.2847  81.9565 0001211  92.3730  92.1701 15.75212808  3713
STARLINK-36622          
1 67667U 26022V   26048.91668981 -.00047878  00000+0 -32116-3 0  9993
2 67667  97.2848  81.9607 0001266  70.1245 124.7826 15.75245107  3715
STARLINK-36625          
1 67668U 26022W   26048.91668981 -.00030777  00000+0 -20608-3 0  9997
2 67668  97.2848  81.9636 0001356  93.4612 109.5036 15.75205392  3710
